$$SOE
2461302.500000000, A.D. 2026-Sep-19 00:00:00.0000, 3.671951025111552E+07, 2.632284134908830E+08, -6.296812559947024E+07,
2461309.500000000, A.D. 2026-Sep-26 00:00:00.0000, 2.468220025512766E+07, 2.671742113187970E+08, -5.806799006026148E+07,
2461316.500000000, A.D. 2026-Oct-03 00:00:00.0000, 1.258685385889327E+07, 2.704932586611095E+08, -5.303158605274495E+07,
2461323.500000000, A.D. 2026-Oct-10 00:00:00.0000, 4.622917577740843E+05, 2.731874143504450E+08, -4.787262025167049E+07,
2461330.500000000, A.D. 2026-Oct-17 00:00:00.0000, -1.166346141634348E+07, 2.752600934312823E+08, -4.260470119550708E+07,
2461337.500000000, A.D. 2026-Oct-24 00:00:00.0000, -2.376322847701475E+07, 2.767161666881272E+08, -3.724129796660621E+07,
2461344.500000000, A.D. 2026-Oct-31 00:00:00.0000, -3.581072122345359E+07, 2.775618606453558E+08, -3.179570353792384E+07,
2461351.500000000, A.D. 2026-Nov-07 00:00:00.0000, -4.778057252694003E+07, 2.778046590299094E+08, -2.628100262720153E+07,
2461358.500000000, A.D. 2026-Nov-14 00:00:00.0000, -5.964835952030772E+07, 2.774532073602241E+08, -2.071004377760077E+07,
2461365.500000000, A.D. 2026-Nov-21 00:00:00.0000, -7.139062047005135E+07, 2.765172219861885E+08, -1.509541518558751E+07,
2461372.500000000, A.D. 2026-Nov-28 00:00:00.0000, -8.298486708324338E+07, 2.750074010675316E+08, -9.449424153367087E+06,
2461379.500000000, A.D. 2026-Dec-05 00:00:00.0000, -9.440958938347918E+07, 2.729353371964623E+08, -3.784080273031175E+06,
2461386.500000000, A.D. 2026-Dec-12 00:00:00.0000, -1.056442537177385E+08, 2.703134350745087E+08, 1.888918157959312E+06,
2461393.500000000, A.D. 2026-Dec-19 00:00:00.0000, -1.166692964399615E+08, 2.671548344595339E+08, 7.558194922108784E+06,
2461400.500000000, A.D. 2026-Dec-26 00:00:00.0000, -1.274661140365140E+08, 2.634733376249849E+08, 1.321270407378250E+07,
2461407.500000000, A.D. 2027-Jan-02 00:00:00.0000, -1.380170500231166E+08, 2.592833411900625E+08, 1.884173576103503E+07,
2461414.500000000, A.D. 2027-Jan-09 00:00:00.0000, -1.483053790699461E+08, 2.545997723563229E+08, 2.443491993036820E+07,
2461421.500000000, A.D. 2027-Jan-16 00:00:00.0000, -1.583152888345555E+08, 2.494380295389214E+08, 2.998222816760975E+07,
2461428.500000000, A.D. 2027-Jan-23 00:00:00.0000, -1.680318599043144E+08, 2.438139272779196E+08, 3.547397390816255E+07,
2461435.500000000, A.D. 2027-Jan-30 00:00:00.0000, -1.774410440570863E+08, 2.377436452483100E+08, 4.090081121255936E+07,
2461442.500000000, A.D. 2027-Feb-06 00:00:00.0000, -1.865296407812144E+08, 2.312436815342566E+08, 4.625373228834595E+07,
2461449.500000000, A.D. 2027-Feb-13 00:00:00.0000, -1.952852728609010E+08, 2.243308111975590E+08, 5.152406407472293E+07,
2461456.500000000, A.D. 2027-Feb-20 00:00:00.0000, -2.036963637115099E+08, 2.170220491668558E+08, 5.670346420843859E+07,
2461463.500000000, A.D. 2027-Feb-27 00:00:00.0000, -2.117521153383238E+08, 2.093346140545093E+08, 6.178391613840083E+07,
2461470.500000000, A.D. 2027-Mar-06 00:00:00.0000, -2.194424841224543E+08, 2.012858946222413E+08, 6.675772341196100E+07,
2461477.500000000, A.D. 2027-Mar-13 00:00:00.0000, -2.267581562397562E+08, 1.928934207456714E+08, 7.161750357855114E+07,
2461484.500000000, A.D. 2027-Mar-20 00:00:00.0000, -2.336905240127053E+08, 1.841748378546205E+08, 7.635618186505184E+07,
2461491.500000000, A.D. 2027-Mar-27 00:00:00.0000, -2.402316631290585E+08, 1.751478841026177E+08, 8.096698466158429E+07,
2461498.500000000, A.D. 2027-Apr-03 00:00:00.0000, -2.463743106418585E+08, 1.658303700182421E+08, 8.544343288424686E+07,
2461505.500000000, A.D. 2027-Apr-10 00:00:00.0000, -2.521118437912533E+08, 1.562401604679583E+08, 8.977933529031223E+07,
2461512.500000000, A.D. 2027-Apr-17 00:00:00.0000, -2.574382597118624E+08, 1.463951587304271E+08, 9.396878181341407E+07,
2461519.500000000, A.D. 2027-Apr-24 00:00:00.0000, -2.623481560173803E+08, 1.363132924421474E+08, 9.800613696931763E+07,
2461526.500000000, A.D. 2027-May-01 00:00:00.0000, -2.668367120200972E+08, 1.260125012718685E+08, 1.018860333627643E+08,
2461533.500000000, A.D. 2027-May-08 00:00:00.0000, -2.708996703232921E+08, 1.155107269088040E+08, 1.056033653772204E+08,
2461540.500000000, A.D. 2027-May-15 00:00:00.0000, -2.745333203206856E+08, 1.048259061612357E+08, 1.091532833063312E+08,
2461547.500000000, A.D. 2027-May-22 00:00:00.0000, -2.777344852004589E+08, 9.397596442714657E+07, 1.125311879006943E+08,
2461554.500000000, A.D. 2027-May-29 00:00:00.0000, -2.805005091186519E+08, 8.297880793470046E+07, 1.157327249393017E+08,
2461561.500000000, A.D. 2027-Jun-05 00:00:00.0000, -2.828292436608291E+08, 7.185231775051889E+07, 1.187537800251720E+08,
2461568.500000000, A.D. 2027-Jun-12 00:00:00.0000, -2.847190356082954E+08, 6.061434585263705E+07, 1.215904738479764E+08,
2461575.500000000, A.D. 2027-Jun-19 00:00:00.0000, -2.861687163521869E+08, 4.928271221186868E+07, 1.242391578954255E+08,
2461582.500000000, A.D. 2027-Jun-26 00:00:00.0000, -2.871775926788378E+08, 3.787520250851104E+07, 1.266964105899773E+08,
2461589.500000000, A.D. 2027-Jul-03 00:00:00.0000, -2.877454387911190E+08, 2.640956638337253E+07, 1.289590338579199E+08,
2461596.500000000, A.D. 2027-Jul-10 00:00:00.0000, -2.878724895241378E+08, 1.490351612552135E+07, 1.310240501445893E+08,
2461603.500000000, A.D. 2027-Jul-17 00:00:00.0000, -2.875594347130818E+08, 3.374725655459233E+06, 1.328886998845075E+08,
2461610.500000000, A.D. 2027-Jul-24 00:00:00.0000, -2.868074145495846E+08, -8.159170357924104E+06, 1.345504394211399E+08,
2461617.500000000, A.D. 2027-Jul-31 00:00:00.0000, -2.856180155064244E+08, -1.968057710701246E+07, 1.360069393706926E+08,
2461624.500000000, A.D. 2027-Aug-07 00:00:00.0000, -2.839932670207452E+08, -3.117193892418598E+07, 1.372560835538785E+08,
2461631.500000000, A.D. 2027-Aug-14 00:00:00.0000, -2.819356412263005E+08, -4.261573757749425E+07, 1.382959686973000E+08,
2461638.500000000, A.D. 2027-Aug-21 00:00:00.0000, -2.794480551092812E+08, -5.399449304162063E+07, 1.391249045878033E+08,
2461645.500000000, A.D. 2027-Aug-28 00:00:00.0000, -2.765338716486034E+08, -6.529076562908357E+07, 1.397414144792786E+08,
2461652.500000000, A.D. 2027-Sep-04 00:00:00.0000, -2.731969011062407E+08, -7.648715706428389E+07, 1.401442360734776E+08,
2461659.500000000, A.D. 2027-Sep-11 00:00:00.0000, -2.694414038452767E+08, -8.756631125171396E+07, 1.403323231538408E+08,
2461666.500000000, A.D. 2027-Sep-18 00:00:00.0000, -2.652720945277246E+08, -9.851091548108976E+07, 1.403048478140838E+08,
2461673.500000000, A.D. 2027-Sep-25 00:00:00.0000, -2.606941474464955E+08, -1.093037022386459E+08, 1.400612032592796E+08,
2461680.500000000, A.D. 2027-Oct-02 00:00:00.0000, -2.557132028938616E+08, -1.199274516932362E+08, 1.396010071755578E+08,
2461687.500000000, A.D. 2027-Oct-09 00:00:00.0000, -2.503353745178049E+08, -1.303649949670937E+08, 1.389241056681036E+08,
2461694.500000000, A.D. 2027-Oct-16 00:00:00.0000, -2.445672575768275E+08, -1.405992183578270E+08, 1.380305777655713E+08,
2461701.500000000, A.D. 2027-Oct-23 00:00:00.0000, -2.384159378073086E+08, -1.506130686300373E+08, 1.369207404794242E+08,
2461708.500000000, A.D. 2027-Oct-30 00:00:00.0000, -2.318890004999039E+08, -1.603895588779386E+08, 1.355951544449324E+08,
2461715.500000000, A.D. 2027-Nov-06 00:00:00.0000, -2.249945409128378E+08, -1.699117739441373E+08, 1.340546303478022E+08,
2461722.500000000, A.D. 2027-Nov-13 00:00:00.0000, -2.177411779635994E+08, -1.791628775910760E+08, 1.323002361486857E+08,
2461729.500000000, A.D. 2027-Nov-20 00:00:00.0000, -2.101380682475447E+08, -1.881261237407783E+08, 1.303333046602140E+08,
2461736.500000000, A.D. 2027-Nov-27 00:00:00.0000, -2.021949187098065E+08, -1.967848689528766E+08, 1.281554415684168E+08,
2461743.500000000, A.D. 2027-Dec-04 00:00:00.0000, -1.939219999269958E+08, -2.051225853641392E+08, 1.257685341504401E+08,
2461750.500000000, A.D. 2027-Dec-11 00:00:00.0000, -1.853301604691938E+08, -2.131228751968462E+08, 1.231747606454088E+08,
2461757.500000000, A.D. 2027-Dec-18 00:00:00.0000, -1.764308419741462E+08, -2.207694873275364E+08, 1.203766002069036E+08,
2461764.500000000, A.D. 2027-Dec-25 00:00:00.0000, -1.672360946764032E+08, -2.280463360785677E+08, 1.173768434024917E+08,
2461771.500000000, A.D. 2028-Jan-01 00:00:00.0000, -1.577585932317221E+08, -2.349375223822636E+08, 1.141786032330976E+08,
$$EOE